IONOSFERA-M 1           
1 61735U 24199A   26032.95582752  .00000066  00000+0  49096-4 0  9996
2 61735  98.7370 267.4013 0001523 127.8514 232.2802 14.22727818108471
IONOSFERA-M 2           
1 61736U 24199B   26032.92006240  .00000058  00000+0  45651-4 0  9991
2 61736  98.7369 267.2777 0001368  45.8400 314.2890 14.22730122111592
BIOMASS                 
1 63772U 25090A   26032.95914711  .00000439  00000+0  86976-4 0  9996
2 63772  98.0714 222.2233 0001072  84.6798 275.4528 14.66970736 40853
GOSAT-GW (IBUKI GW)     
1 64694U 25141A   26032.91829666  .00001465  00000+0  26660-3 0  9990
2 64694  98.0473 332.5164 0001551  85.4175 274.7207 14.67553361 32003
IONOSFERA-M 3           
1 64876U 25155A   26032.95738870  .00000069  00000+0  51068-4 0  9997
2 64876  98.5857 358.3935 0000364 197.2368 162.8798 14.21456877 27195
IONOSFERA-M 4           
1 64877U 25155B   26032.99241081  .00000088  00000+0  59648-4 0  9998
2 64877  98.5856 358.3463 0000594 116.8161 243.3077 14.21458411 27195
MICROCARB               
1 64899U 25156A   26032.76473153  .00000721  00000+0  12222-3 0  9995
2 64899  97.9950 112.2773 0015972 349.6815  10.4062 14.72158719 28042
CO3D 3                  
1 64900U 25156B   26032.98763128  .00011358  00000+0  52700-3 0  9999
2 64900  97.4335 113.6215 0000621 314.6925  45.4260 15.20202347 28995
CO3D 4                  
1 64901U 25156C   26032.52702288  .00001399  00000+0  67710-4 0  9992
2 64901  97.4338 113.1664 0001358  51.6821 308.4536 15.20208336 28928
CO3D 2                  
1 64902U 25156D   26032.95443887  .00005535  00000+0  25857-3 0  9998
2 64902  97.4340 113.4867 0000185 224.3354 135.7866 15.20206834 28981
CO3D 1                  
1 64903U 25156E   26032.95459248  .00004846  00000+0  22683-3 0  9995
2 64903  97.4340 113.4867 0000183 310.2510  49.8709 15.20198826 28981
SENTINEL-6B             
1 66514U 25264A   26032.46795428 -.00000036  00000+0  11068-3 0  9997
2 66514  66.0410  57.0706 0008066 270.4106  89.5985 12.80930235  9787
CSG-3                   
1 67304U 26001A   26032.97544384 -.00000177  00000+0 -15762-4 0  9997
2 67304  97.8709 218.5353 0001280  85.5657 274.5702 14.82154525  4431
