[{"OBJECT_NAME":"IONOSFERA-M 1","OBJECT_ID":"2024-199A","EPOCH":"2026-02-01T22:56:23.497728","MEAN_MOTION":14.22727818,"ECCENTRICITY":0.0001523,"INCLINATION":98.737,"RA_OF_ASC_NODE":267.4013,"ARG_OF_PERICENTER":127.8514,"MEAN_ANOMALY":232.2802,"EPHEMERIS_TYPE":0,"CLASSIFICATION_TYPE":"U","NORAD_CAT_ID":61735,"ELEMENT_SET_NO":999,"REV_AT_EPOCH":10847,"BSTAR":4.9096476e-5,"MEAN_MOTION_DOT":6.6e-7,"MEAN_MOTION_DDOT":0},{"OBJECT_NAME":"IONOSFERA-M 2","OBJECT_ID":"2024-199B","EPOCH":"2026-02-01T22:04:53.391360","MEAN_MOTION":14.22730122,"ECCENTRICITY":0.00013685,"INCLINATION":98.7369,"RA_OF_ASC_NODE":267.2777,"ARG_OF_PERICENTER":45.84,"MEAN_ANOMALY":314.289,"EPHEMERIS_TYPE":0,"CLASSIFICATION_TYPE":"U","NORAD_CAT_ID":61736,"ELEMENT_SET_NO":999,"REV_AT_EPOCH":11159,"BSTAR":4.5650871e-5,"MEAN_MOTION_DOT":5.8e-7,"MEAN_MOTION_DDOT":0},{"OBJECT_NAME":"BIOMASS","OBJECT_ID":"2025-090A","EPOCH":"2026-02-01T23:01:10.310304","MEAN_MOTION":14.66970736,"ECCENTRICITY":0.00010724,"INCLINATION":98.0714,"RA_OF_ASC_NODE":222.2233,"ARG_OF_PERICENTER":84.6798,"MEAN_ANOMALY":275.4528,"EPHEMERIS_TYPE":0,"CLASSIFICATION_TYPE":"U","NORAD_CAT_ID":63772,"ELEMENT_SET_NO":999,"REV_AT_EPOCH":4085,"BSTAR":8.6975736e-5,"MEAN_MOTION_DOT":4.39e-6,"MEAN_MOTION_DDOT":0},{"OBJECT_NAME":"GOSAT-GW (IBUKI GW)","OBJECT_ID":"2025-141A","EPOCH":"2026-02-01T22:02:20.831424","MEAN_MOTION":14.67553361,"ECCENTRICITY":0.00015516,"INCLINATION":98.0473,"RA_OF_ASC_NODE":332.5164,"ARG_OF_PERICENTER":85.4175,"MEAN_ANOMALY":274.7207,"EPHEMERIS_TYPE":0,"CLASSIFICATION_TYPE":"U","NORAD_CAT_ID":64694,"ELEMENT_SET_NO":999,"REV_AT_EPOCH":3200,"BSTAR":0.00026660081,"MEAN_MOTION_DOT":1.465e-5,"MEAN_MOTION_DDOT":0},{"OBJECT_NAME":"IONOSFERA-M 3","OBJECT_ID":"2025-155A","EPOCH":"2026-02-01T22:58:38.383680","MEAN_MOTION":14.21456877,"ECCENTRICITY":3.643e-5,"INCLINATION":98.5857,"RA_OF_ASC_NODE":358.3935,"ARG_OF_PERICENTER":197.2368,"MEAN_ANOMALY":162.8798,"EPHEMERIS_TYPE":0,"CLASSIFICATION_TYPE":"U","NORAD_CAT_ID":64876,"ELEMENT_SET_NO":999,"REV_AT_EPOCH":2719,"BSTAR":5.1067975e-5,"MEAN_MOTION_DOT":6.9e-7,"MEAN_MOTION_DDOT":0},{"OBJECT_NAME":"IONOSFERA-M 4","OBJECT_ID":"2025-155B","EPOCH":"2026-02-01T23:49:04.293984","MEAN_MOTION":14.21458411,"ECCENTRICITY":5.948e-5,"INCLINATION":98.5856,"RA_OF_ASC_NODE":358.3463,"ARG_OF_PERICENTER":116.8161,"MEAN_ANOMALY":243.3077,"EPHEMERIS_TYPE":0,"CLASSIFICATION_TYPE":"U","NORAD_CAT_ID":64877,"ELEMENT_SET_NO":999,"REV_AT_EPOCH":2719,"BSTAR":5.9647926e-5,"MEAN_MOTION_DOT":8.8e-7,"MEAN_MOTION_DDOT":0},{"OBJECT_NAME":"MICROCARB","OBJECT_ID":"2025-156A","EPOCH":"2026-02-01T18:21:12.804192","MEAN_MOTION":14.72158719,"ECCENTRICITY":0.00159725,"INCLINATION":97.995,"RA_OF_ASC_NODE":112.2773,"ARG_OF_PERICENTER":349.6815,"MEAN_ANOMALY":10.4062,"EPHEMERIS_TYPE":0,"CLASSIFICATION_TYPE":"U","NORAD_CAT_ID":64899,"ELEMENT_SET_NO":999,"REV_AT_EPOCH":2804,"BSTAR":0.00012221784,"MEAN_MOTION_DOT":7.21e-6,"MEAN_MOTION_DDOT":0},{"OBJECT_NAME":"CO3D 3","OBJECT_ID":"2025-156B","EPOCH":"2026-02-01T23:42:11.342592","MEAN_MOTION":15.20202347,"ECCENTRICITY":6.218e-5,"INCLINATION":97.4335,"RA_OF_ASC_NODE":113.6215,"ARG_OF_PERICENTER":314.6925,"MEAN_ANOMALY":45.426,"EPHEMERIS_TYPE":0,"CLASSIFICATION_TYPE":"U","NORAD_CAT_ID":64900,"ELEMENT_SET_NO":999,"REV_AT_EPOCH":2899,"BSTAR":0.00052700041,"MEAN_MOTION_DOT":0.00011358,"MEAN_MOTION_DDOT":0},{"OBJECT_NAME":"CO3D 4","OBJECT_ID":"2025-156C","EPOCH":"2026-02-01T12:38:54.776832","MEAN_MOTION":15.20208336,"ECCENTRICITY":0.00013583,"INCLINATION":97.4338,"RA_OF_ASC_NODE":113.1664,"ARG_OF_PERICENTER":51.6821,"MEAN_ANOMALY":308.4536,"EPHEMERIS_TYPE":0,"CLASSIFICATION_TYPE":"U","NORAD_CAT_ID":64901,"ELEMENT_SET_NO":999,"REV_AT_EPOCH":2892,"BSTAR":6.7710046e-5,"MEAN_MOTION_DOT":1.399e-5,"MEAN_MOTION_DDOT":0},{"OBJECT_NAME":"CO3D 2","OBJECT_ID":"2025-156D","EPOCH":"2026-02-01T22:54:23.518368","MEAN_MOTION":15.20206834,"ECCENTRICITY":1.852e-5,"INCLINATION":97.434,"RA_OF_ASC_NODE":113.4867,"ARG_OF_PERICENTER":224.3354,"MEAN_ANOMALY":135.7866,"EPHEMERIS_TYPE":0,"CLASSIFICATION_TYPE":"U","NORAD_CAT_ID":64902,"ELEMENT_SET_NO":999,"REV_AT_EPOCH":2898,"BSTAR":0.00025856866,"MEAN_MOTION_DOT":5.535e-5,"MEAN_MOTION_DDOT":0},{"OBJECT_NAME":"CO3D 1","OBJECT_ID":"2025-156E","EPOCH":"2026-02-01T22:54:36.790272","MEAN_MOTION":15.20198826,"ECCENTRICITY":1.838e-5,"INCLINATION":97.434,"RA_OF_ASC_NODE":113.4867,"ARG_OF_PERICENTER":310.251,"MEAN_ANOMALY":49.8709,"EPHEMERIS_TYPE":0,"CLASSIFICATION_TYPE":"U","NORAD_CAT_ID":64903,"ELEMENT_SET_NO":999,"REV_AT_EPOCH":2898,"BSTAR":0.00022683403,"MEAN_MOTION_DOT":4.846e-5,"MEAN_MOTION_DDOT":0},{"OBJECT_NAME":"SENTINEL-6B","OBJECT_ID":"2025-264A","EPOCH":"2026-02-01T11:13:51.249792","MEAN_MOTION":12.80930235,"ECCENTRICITY":0.0008066,"INCLINATION":66.041,"RA_OF_ASC_NODE":57.0706,"ARG_OF_PERICENTER":270.4106,"MEAN_ANOMALY":89.5985,"EPHEMERIS_TYPE":0,"CLASSIFICATION_TYPE":"U","NORAD_CAT_ID":66514,"ELEMENT_SET_NO":999,"REV_AT_EPOCH":978,"BSTAR":0.00011068136,"MEAN_MOTION_DOT":-3.6e-7,"MEAN_MOTION_DDOT":0},{"OBJECT_NAME":"CSG-3","OBJECT_ID":"2026-001A","EPOCH":"2026-02-01T23:24:38.347776","MEAN_MOTION":14.82154525,"ECCENTRICITY":0.00012806,"INCLINATION":97.8709,"RA_OF_ASC_NODE":218.5353,"ARG_OF_PERICENTER":85.5657,"MEAN_ANOMALY":274.5702,"EPHEMERIS_TYPE":0,"CLASSIFICATION_TYPE":"U","NORAD_CAT_ID":67304,"ELEMENT_SET_NO":999,"REV_AT_EPOCH":443,"BSTAR":-1.5761843e-5,"MEAN_MOTION_DOT":-1.77e-6,"MEAN_MOTION_DDOT":0}]
